[{"OBJECT_NAME":"HST","OBJECT_ID":"1990-037B","EPOCH":"2026-03-09T03:50:04.164288","MEAN_MOTION":15.29473555,"ECCENTRICITY":0.00018372,"INCLINATION":28.4717,"RA_OF_ASC_NODE":43.6133,"ARG_OF_PERICENTER":120.9992,"MEAN_ANOMALY":239.0785,"EPHEMERIS_TYPE":0,"CLASSIFICATION_TYPE":"U","NORAD_CAT_ID":20580,"ELEMENT_SET_NO":999,"REV_AT_EPOCH":77323,"BSTAR":0.0003002261,"MEAN_MOTION_DOT":9.063e-5,"MEAN_MOTION_DDOT":0},{"OBJECT_NAME":"STARLINK-34776","OBJECT_ID":"2025-161Y","EPOCH":"2026-03-09T22:11:36.569184","MEAN_MOTION":15.30176973,"ECCENTRICITY":0.00011932,"INCLINATION":53.1572,"RA_OF_ASC_NODE":293.2663,"ARG_OF_PERICENTER":55.4742,"MEAN_ANOMALY":304.6371,"EPHEMERIS_TYPE":0,"CLASSIFICATION_TYPE":"U","NORAD_CAT_ID":65037,"ELEMENT_SET_NO":999,"REV_AT_EPOCH":3426,"BSTAR":0.00051644763,"MEAN_MOTION_DOT":0.00014957,"MEAN_MOTION_DDOT":0}]
